[{"OBJECT_NAME":"IRNSS-1C","OBJECT_ID":"2014-061A","EPOCH":"2026-04-01T11:35:38.793696","MEAN_MOTION":1.00273617,"ECCENTRICITY":0.0020792,"INCLINATION":6.3211,"RA_OF_ASC_NODE":90.403,"ARG_OF_PERICENTER":356.0887,"MEAN_ANOMALY":0.2799,"EPHEMERIS_TYPE":0,"CLASSIFICATION_TYPE":"U","NORAD_CAT_ID":40269,"ELEMENT_SET_NO":999,"REV_AT_EPOCH":4191,"BSTAR":0,"MEAN_MOTION_DOT":-1.66e-6,"MEAN_MOTION_DDOT":0},{"OBJECT_NAME":"INTELSAT 30 (IS-30)","OBJECT_ID":"2014-062A","EPOCH":"2026-04-01T10:29:00.332160","MEAN_MOTION":1.00268358,"ECCENTRICITY":0.0001227,"INCLINATION":0.0121,"RA_OF_ASC_NODE":170.7679,"ARG_OF_PERICENTER":309.5602,"MEAN_ANOMALY":131.6727,"EPHEMERIS_TYPE":0,"CLASSIFICATION_TYPE":"U","NORAD_CAT_ID":40271,"ELEMENT_SET_NO":999,"REV_AT_EPOCH":602,"BSTAR":0,"MEAN_MOTION_DOT":0,"MEAN_MOTION_DDOT":0},{"OBJECT_NAME":"ARSAT 1","OBJECT_ID":"2014-062B","EPOCH":"2026-04-01T10:51:28.032192","MEAN_MOTION":1.00271527,"ECCENTRICITY":0.0001657,"INCLINATION":0.0278,"RA_OF_ASC_NODE":286.7891,"ARG_OF_PERICENTER":76.9691,"MEAN_ANOMALY":277.1026,"EPHEMERIS_TYPE":0,"CLASSIFICATION_TYPE":"U","NORAD_CAT_ID":40272,"ELEMENT_SET_NO":999,"REV_AT_EPOCH":4185,"BSTAR":0,"MEAN_MOTION_DOT":-2.69e-6,"MEAN_MOTION_DDOT":0},{"OBJECT_NAME":"EUTELSAT 53A","OBJECT_ID":"2014-064A","EPOCH":"2026-04-01T04:36:19.011744","MEAN_MOTION":1.00274782,"ECCENTRICITY":0.0001475,"INCLINATION":0.016,"RA_OF_ASC_NODE":233.0759,"ARG_OF_PERICENTER":173.4953,"MEAN_ANOMALY":265.0486,"EPHEMERIS_TYPE":0,"CLASSIFICATION_TYPE":"U","NORAD_CAT_ID":40277,"ELEMENT_SET_NO":999,"REV_AT_EPOCH":4079,"BSTAR":0,"MEAN_MOTION_DOT":8.7e-7,"MEAN_MOTION_DDOT":0},{"OBJECT_NAME":"GSAT-16","OBJECT_ID":"2014-078A","EPOCH":"2026-04-01T07:22:38.724960","MEAN_MOTION":1.00271178,"ECCENTRICITY":0.0006117,"INCLINATION":0.056,"RA_OF_ASC_NODE":82.2243,"ARG_OF_PERICENTER":348.9834,"MEAN_ANOMALY":284.1965,"EPHEMERIS_TYPE":0,"CLASSIFICATION_TYPE":"U","NORAD_CAT_ID":40332,"ELEMENT_SET_NO":999,"REV_AT_EPOCH":4133,"BSTAR":0,"MEAN_MOTION_DOT":7.5e-7,"MEAN_MOTION_DDOT":0},{"OBJECT_NAME":"DIRECTV 14","OBJECT_ID":"2014-078B","EPOCH":"2026-03-31T12:18:45.454176","MEAN_MOTION":1.00270195,"ECCENTRICITY":6.364e-5,"INCLINATION":0.0179,"RA_OF_ASC_NODE":173.3469,"ARG_OF_PERICENTER":320.9576,"MEAN_ANOMALY":140.0339,"EPHEMERIS_TYPE":0,"CLASSIFICATION_TYPE":"U","NORAD_CAT_ID":40333,"ELEMENT_SET_NO":999,"REV_AT_EPOCH":4126,"BSTAR":0,"MEAN_MOTION_DOT":0,"MEAN_MOTION_DDOT":0},{"OBJECT_NAME":"YAMAL 401","OBJECT_ID":"2014-082A","EPOCH":"2026-04-01T11:37:31.115424","MEAN_MOTION":1.00273564,"ECCENTRICITY":0.0001142,"INCLINATION":0.0054,"RA_OF_ASC_NODE":153.7592,"ARG_OF_PERICENTER":114.1623,"MEAN_ANOMALY":186.2331,"EPHEMERIS_TYPE":0,"CLASSIFICATION_TYPE":"U","NORAD_CAT_ID":40345,"ELEMENT_SET_NO":999,"REV_AT_EPOCH":4114,"BSTAR":0,"MEAN_MOTION_DOT":-2.38e-6,"MEAN_MOTION_DDOT":0},{"OBJECT_NAME":"ASTRA 2G","OBJECT_ID":"2014-089A","EPOCH":"2026-04-01T07:46:38.656128","MEAN_MOTION":1.00271102,"ECCENTRICITY":0.0004983,"INCLINATION":0.0249,"RA_OF_ASC_NODE":12.1545,"ARG_OF_PERICENTER":29.0737,"MEAN_ANOMALY":293.2996,"EPHEMERIS_TYPE":0,"CLASSIFICATION_TYPE":"U","NORAD_CAT_ID":40364,"ELEMENT_SET_NO":999,"REV_AT_EPOCH":4119,"BSTAR":0,"MEAN_MOTION_DOT":0,"MEAN_MOTION_DDOT":0},{"OBJECT_NAME":"FENGYUN 2G","OBJECT_ID":"2014-090A","EPOCH":"2026-04-01T11:40:15.851712","MEAN_MOTION":1.00262452,"ECCENTRICITY":0.0001564,"INCLINATION":5.4462,"RA_OF_ASC_NODE":73.7307,"ARG_OF_PERICENTER":145.7694,"MEAN_ANOMALY":244.7495,"EPHEMERIS_TYPE":0,"CLASSIFICATION_TYPE":"U","NORAD_CAT_ID":40367,"ELEMENT_SET_NO":999,"REV_AT_EPOCH":4123,"BSTAR":0,"MEAN_MOTION_DOT":-3.04e-6,"MEAN_MOTION_DDOT":0},{"OBJECT_NAME":"MUOS-3","OBJECT_ID":"2015-002A","EPOCH":"2026-04-01T08:18:38.810592","MEAN_MOTION":1.00271682,"ECCENTRICITY":0.0051789,"INCLINATION":4.3734,"RA_OF_ASC_NODE":43.1302,"ARG_OF_PERICENTER":182.9294,"MEAN_ANOMALY":72.8644,"EPHEMERIS_TYPE":0,"CLASSIFICATION_TYPE":"U","NORAD_CAT_ID":40374,"ELEMENT_SET_NO":999,"REV_AT_EPOCH":4081,"BSTAR":0,"MEAN_MOTION_DOT":-1.35e-6,"MEAN_MOTION_DDOT":0},{"OBJECT_NAME":"INMARSAT 5-F2","OBJECT_ID":"2015-005A","EPOCH":"2026-04-01T10:56:12.576768","MEAN_MOTION":1.00266702,"ECCENTRICITY":8.43e-5,"INCLINATION":0.0204,"RA_OF_ASC_NODE":184.5841,"ARG_OF_PERICENTER":190.4531,"MEAN_ANOMALY":283.8401,"EPHEMERIS_TYPE":0,"CLASSIFICATION_TYPE":"U","NORAD_CAT_ID":40384,"ELEMENT_SET_NO":999,"REV_AT_EPOCH":4022,"BSTAR":0,"MEAN_MOTION_DOT":0,"MEAN_MOTION_DDOT":0},{"OBJECT_NAME":"ABS-3A","OBJECT_ID":"2015-010A","EPOCH":"2026-04-01T07:45:38.354112","MEAN_MOTION":1.0027051,"ECCENTRICITY":0.0001437,"INCLINATION":0.0095,"RA_OF_ASC_NODE":125.7911,"ARG_OF_PERICENTER":192.222,"MEAN_ANOMALY":345.0923,"EPHEMERIS_TYPE":0,"CLASSIFICATION_TYPE":"U","NORAD_CAT_ID":40424,"ELEMENT_SET_NO":999,"REV_AT_EPOCH":4060,"BSTAR":0,"MEAN_MOTION_DOT":-3.7e-7,"MEAN_MOTION_DDOT":0},{"OBJECT_NAME":"EUTELSAT 115 WEST B","OBJECT_ID":"2015-010B","EPOCH":"2026-04-01T08:13:46.185024","MEAN_MOTION":1.00272162,"ECCENTRICITY":8.8e-6,"INCLINATION":0.0244,"RA_OF_ASC_NODE":40.5341,"ARG_OF_PERICENTER":87.0924,"MEAN_ANOMALY":70.6169,"EPHEMERIS_TYPE":0,"CLASSIFICATION_TYPE":"U","NORAD_CAT_ID":40425,"ELEMENT_SET_NO":999,"REV_AT_EPOCH":4062,"BSTAR":0,"MEAN_MOTION_DOT":-3.5e-7,"MEAN_MOTION_DDOT":0},{"OBJECT_NAME":"EXPRESS-AM7","OBJECT_ID":"2015-012A","EPOCH":"2026-04-01T06:15:17.019360","MEAN_MOTION":1.0025918,"ECCENTRICITY":0.0003264,"INCLINATION":0.0143,"RA_OF_ASC_NODE":235.1658,"ARG_OF_PERICENTER":112.7555,"MEAN_ANOMALY":335.5236,"EPHEMERIS_TYPE":0,"CLASSIFICATION_TYPE":"U","NORAD_CAT_ID":40505,"ELEMENT_SET_NO":999,"REV_AT_EPOCH":4023,"BSTAR":0,"MEAN_MOTION_DOT":1.41e-6,"MEAN_MOTION_DDOT":0},{"OBJECT_NAME":"BEIDOU-3S IGSO-1S","OBJECT_ID":"2015-019A","EPOCH":"2026-03-23T06:58:51.098016","MEAN_MOTION":1.00268843,"ECCENTRICITY":0.0036261,"INCLINATION":49.3559,"RA_OF_ASC_NODE":296.4949,"ARG_OF_PERICENTER":190.1236,"MEAN_ANOMALY":255.118,"EPHEMERIS_TYPE":0,"CLASSIFICATION_TYPE":"U","NORAD_CAT_ID":40549,"ELEMENT_SET_NO":999,"REV_AT_EPOCH":4021,"BSTAR":0,"MEAN_MOTION_DOT":-1.63e-6,"MEAN_MOTION_DDOT":0},{"OBJECT_NAME":"THOR 7","OBJECT_ID":"2015-022A","EPOCH":"2026-04-01T07:46:23.282112","MEAN_MOTION":1.0027128,"ECCENTRICITY":0.0002651,"INCLINATION":0.0117,"RA_OF_ASC_NODE":148.9575,"ARG_OF_PERICENTER":220.8151,"MEAN_ANOMALY":295.8418,"EPHEMERIS_TYPE":0,"CLASSIFICATION_TYPE":"U","NORAD_CAT_ID":40613,"ELEMENT_SET_NO":999,"REV_AT_EPOCH":4004,"BSTAR":0,"MEAN_MOTION_DOT":-1.9e-7,"MEAN_MOTION_DDOT":0},{"OBJECT_NAME":"TURKMENALEM52E/MONACOSAT","OBJECT_ID":"2015-023A","EPOCH":"2026-04-01T11:26:47.145120","MEAN_MOTION":1.00273452,"ECCENTRICITY":0.000312,"INCLINATION":0.0197,"RA_OF_ASC_NODE":178.2607,"ARG_OF_PERICENTER":204.3918,"MEAN_ANOMALY":30.9179,"EPHEMERIS_TYPE":0,"CLASSIFICATION_TYPE":"U","NORAD_CAT_ID":40617,"ELEMENT_SET_NO":999,"REV_AT_EPOCH":4007,"BSTAR":0,"MEAN_MOTION_DOT":0,"MEAN_MOTION_DDOT":0}]
