IRNSS-1C                
1 40269U 14061A   26091.48308789 -.00000166  00000+0  00000+0 0  9990
2 40269   6.3211  90.4030 0020792 356.0887   0.2799  1.00273617 41918
INTELSAT 30 (IS-30)     
1 40271U 14062A   26091.43680940  .00000000  00000+0  00000+0 0  9997
2 40271   0.0121 170.7679 0001227 309.5602 131.6727  1.00268358  6022
ARSAT 1                 
1 40272U 14062B   26091.45240778 -.00000269  00000+0  00000+0 0  9999
2 40272   0.0278 286.7891 0001657  76.9691 277.1026  1.00271527 41850
EUTELSAT 53A            
1 40277U 14064A   26091.19188671  .00000087  00000+0  00000+0 0  9997
2 40277   0.0160 233.0759 0001475 173.4953 265.0486  1.00274782 40799
GSAT-16                 
1 40332U 14078A   26091.30739265  .00000075  00000+0  00000+0 0  9995
2 40332   0.0560  82.2243 0006117 348.9834 284.1965  1.00271178 41333
DIRECTV 14              
1 40333U 14078B   26090.51302609  .00000000  00000+0  00000+0 0  9994
2 40333   0.0179 173.3469 0000636 320.9576 140.0339  1.00270195 41260
YAMAL 401               
1 40345U 14082A   26091.48438791 -.00000238  00000+0  00000+0 0  9995
2 40345   0.0054 153.7592 0001142 114.1623 186.2331  1.00273564 41147
ASTRA 2G                
1 40364U 14089A   26091.32405852  .00000000  00000+0  00000+0 0  9994
2 40364   0.0249  12.1545 0004983  29.0737 293.2996  1.00271102 41193
FENGYUN 2G              
1 40367U 14090A   26091.48629458 -.00000304  00000+0  00000+0 0  9994
2 40367   5.4462  73.7307 0001564 145.7694 244.7495  1.00262452 41239
MUOS-3                  
1 40374U 15002A   26091.34628253 -.00000135  00000+0  00000+0 0  9995
2 40374   4.3734  43.1302 0051789 182.9294  72.8644  1.00271682 40810
INMARSAT 5-F2           
1 40384U 15005A   26091.45570112  .00000000  00000+0  00000+0 0  9991
2 40384   0.0204 184.5841 0000843 190.4531 283.8401  1.00266702 40224
ABS-3A                  
1 40424U 15010A   26091.32336058 -.00000037  00000+0  00000+0 0  9998
2 40424   0.0095 125.7911 0001437 192.2220 345.0923  1.00270510 40601
EUTELSAT 115 WEST B     
1 40425U 15010B   26091.34289566 -.00000035  00000+0  00000+0 0  9990
2 40425   0.0244  40.5341 0000088  87.0924  70.6169  1.00272162 40622
EXPRESS-AM7             
1 40505U 15012A   26091.26061365  .00000141  00000+0  00000+0 0  9994
2 40505   0.0143 235.1658 0003264 112.7555 335.5236  1.00259180 40237
BEIDOU-3S IGSO-1S       
1 40549U 15019A   26082.29086919 -.00000163  00000+0  00000+0 0  9999
2 40549  49.3559 296.4949 0036261 190.1236 255.1180  1.00268843 40213
THOR 7                  
1 40613U 15022A   26091.32388058 -.00000019  00000+0  00000+0 0  9998
2 40613   0.0117 148.9575 0002651 220.8151 295.8418  1.00271280 40043
TURKMENALEM52E/MONACOSAT
1 40617U 15023A   26091.47693455  .00000000  00000+0  00000+0 0  9998
2 40617   0.0197 178.2607 0003120 204.3918  30.9179  1.00273452 40075
